HELIOS 1B               
1 25977U 99064A   26117.74250470  .00001567  00000+0  17768-3 0  9994
2 25977  98.1650  21.4184 0000369  97.5623 262.5634 14.87867432692556
TERRA                   
1 25994U 99068A   26117.82457347  .00000429  00000+0  96374-4 0  9995
2 25994  97.9500 169.3575 0003110  52.7404  36.5849 14.61061995402254
SL-16 R/B               
1 26070U 00006B   26117.83246020  .00000300  00000+0  17659-3 0  9996
2 26070  71.0043 354.5067 0014554 109.4499 250.8198 14.15831856355511
TITAN 4B R/B            
1 26474U 00047B   26117.85311176  .00003265  00000+0  20499-3 0  9995
2 26474  67.9883 262.2192 0042686 339.5051  20.4383 15.09926488400334
ENVISAT                 
1 27386U 02009A   26117.83327579  .00000092  00000+0  43601-4 0  9996
2 27386  98.3800  70.2855 0001141  87.2524 300.0632 14.39052361266246
IDEFIX & ARIANE 42P R/B 
1 27422U 02021B   26117.78882928  .00000240  00000+0  10776-3 0  9990
2 27422  98.5921  55.8257 0012752  46.7916 313.4330 14.31056645251049
AQUA                    
1 27424U 02022A   26117.88423221  .00000947  00000+0  19835-3 0  9990
2 27424  98.4245  86.1758 0002061  93.9087 287.6725 14.62077815275926
CZ-4B R/B               
1 27432U 02024C   26117.74654815  .00000032  00000+0  39674-4 0  9990
2 27432  98.8742 170.8826 0049195 243.0505 226.1521 14.14555984236171
MIDORI II (ADEOS-II)    
1 27597U 02056A   26117.87639705  .00000302  00000+0  13640-3 0  9996
2 27597  98.7843  76.7205 0000905 142.3916 217.7329 14.29319932217327
H-2A R/B                
1 27601U 02056E   26117.83612250  .00000363  00000+0  14152-3 0  9990
2 27601  98.3278  76.3568 0070625  16.2292  41.7483 14.33794871221157
CZ-4B R/B               
1 28059U 03049C   26117.55182530  .00000416  00000+0  10671-3 0  9994
2 28059  98.6899 114.3868 0049341  82.7979 277.8822 14.55061464193701
CZ-2C R/B               
1 28222U 04012C   26117.76206019  .00074953  00000+0  60150-3 0  9993
2 28222  97.7133 187.9125 0013485 129.5605 230.6850 15.70658434211966
SL-16 R/B               
1 28353U 04021B   26117.60216012 -.00000207  00000+0 -82894-4 0  9998
2 28353  70.9982 129.8488 0006895 307.5201  52.5294 14.14603801129753
CZ-4B R/B               
1 28415U 04035C   26117.84616764  .00008845  00000+0  30370-3 0  9991
2 28415  97.3422 151.5057 0032522 151.4102 208.8930 15.29849599187424
CZ-2C R/B               
1 28480U 04046B   26117.77800730  .00000176  00000+0  80545-4 0  9994
2 28480  98.1969  29.7019 0139699  10.2378 350.1598 14.27011243115500
ARIANE 5 R/B            
1 28499U 04049H   26117.74299172  .00001083  00000+0  12535-3 0  9997
2 28499  98.2690 288.0591 0083800 191.2491 168.6852 14.85358327153075
CZ-2D R/B               
1 28738U 05024B   26117.57632753  .00048044  00000+0  49788-3 0  9992
2 28738  97.3538 134.6723 0005013 165.6249 194.5154 15.64541165147417
