[{"OBJECT_NAME":"HELIOS 1B","OBJECT_ID":"1999-064A","EPOCH":"2026-04-27T17:49:12.406080","MEAN_MOTION":14.87867432,"ECCENTRICITY":3.69e-5,"INCLINATION":98.165,"RA_OF_ASC_NODE":21.4184,"ARG_OF_PERICENTER":97.5623,"MEAN_ANOMALY":262.5634,"EPHEMERIS_TYPE":0,"CLASSIFICATION_TYPE":"U","NORAD_CAT_ID":25977,"ELEMENT_SET_NO":999,"REV_AT_EPOCH":69255,"BSTAR":0.00017768,"MEAN_MOTION_DOT":1.567e-5,"MEAN_MOTION_DDOT":0},{"OBJECT_NAME":"TERRA","OBJECT_ID":"1999-068A","EPOCH":"2026-04-27T19:47:23.147808","MEAN_MOTION":14.61061995,"ECCENTRICITY":0.000311,"INCLINATION":97.95,"RA_OF_ASC_NODE":169.3575,"ARG_OF_PERICENTER":52.7404,"MEAN_ANOMALY":36.5849,"EPHEMERIS_TYPE":0,"CLASSIFICATION_TYPE":"U","NORAD_CAT_ID":25994,"ELEMENT_SET_NO":999,"REV_AT_EPOCH":40225,"BSTAR":9.6374e-5,"MEAN_MOTION_DOT":4.29e-6,"MEAN_MOTION_DDOT":0},{"OBJECT_NAME":"SL-16 R/B","OBJECT_ID":"2000-006B","EPOCH":"2026-04-27T19:58:44.561280","MEAN_MOTION":14.15831856,"ECCENTRICITY":0.0014554,"INCLINATION":71.0043,"RA_OF_ASC_NODE":354.5067,"ARG_OF_PERICENTER":109.4499,"MEAN_ANOMALY":250.8198,"EPHEMERIS_TYPE":0,"CLASSIFICATION_TYPE":"U","NORAD_CAT_ID":26070,"ELEMENT_SET_NO":999,"REV_AT_EPOCH":35551,"BSTAR":0.00017659,"MEAN_MOTION_DOT":3.0e-6,"MEAN_MOTION_DDOT":0},{"OBJECT_NAME":"TITAN 4B R/B","OBJECT_ID":"2000-047B","EPOCH":"2026-04-27T20:28:28.856064","MEAN_MOTION":15.09926488,"ECCENTRICITY":0.0042686,"INCLINATION":67.9883,"RA_OF_ASC_NODE":262.2192,"ARG_OF_PERICENTER":339.5051,"MEAN_ANOMALY":20.4383,"EPHEMERIS_TYPE":0,"CLASSIFICATION_TYPE":"U","NORAD_CAT_ID":26474,"ELEMENT_SET_NO":999,"REV_AT_EPOCH":40033,"BSTAR":0.00020499,"MEAN_MOTION_DOT":3.265e-5,"MEAN_MOTION_DDOT":0},{"OBJECT_NAME":"ENVISAT","OBJECT_ID":"2002-009A","EPOCH":"2026-04-27T19:59:55.028256","MEAN_MOTION":14.39052361,"ECCENTRICITY":0.0001141,"INCLINATION":98.38,"RA_OF_ASC_NODE":70.2855,"ARG_OF_PERICENTER":87.2524,"MEAN_ANOMALY":300.0632,"EPHEMERIS_TYPE":0,"CLASSIFICATION_TYPE":"U","NORAD_CAT_ID":27386,"ELEMENT_SET_NO":999,"REV_AT_EPOCH":26624,"BSTAR":4.3601e-5,"MEAN_MOTION_DOT":9.2e-7,"MEAN_MOTION_DDOT":0},{"OBJECT_NAME":"IDEFIX & ARIANE 42P R/B","OBJECT_ID":"2002-021B","EPOCH":"2026-04-27T18:55:54.849792","MEAN_MOTION":14.31056645,"ECCENTRICITY":0.0012752,"INCLINATION":98.5921,"RA_OF_ASC_NODE":55.8257,"ARG_OF_PERICENTER":46.7916,"MEAN_ANOMALY":313.433,"EPHEMERIS_TYPE":0,"CLASSIFICATION_TYPE":"U","NORAD_CAT_ID":27422,"ELEMENT_SET_NO":999,"REV_AT_EPOCH":25104,"BSTAR":0.00010776,"MEAN_MOTION_DOT":2.4e-6,"MEAN_MOTION_DDOT":0},{"OBJECT_NAME":"AQUA","OBJECT_ID":"2002-022A","EPOCH":"2026-04-27T21:13:17.662944","MEAN_MOTION":14.62077815,"ECCENTRICITY":0.0002061,"INCLINATION":98.4245,"RA_OF_ASC_NODE":86.1758,"ARG_OF_PERICENTER":93.9087,"MEAN_ANOMALY":287.6725,"EPHEMERIS_TYPE":0,"CLASSIFICATION_TYPE":"U","NORAD_CAT_ID":27424,"ELEMENT_SET_NO":999,"REV_AT_EPOCH":27592,"BSTAR":0.00019835,"MEAN_MOTION_DOT":9.47e-6,"MEAN_MOTION_DDOT":0},{"OBJECT_NAME":"CZ-4B R/B","OBJECT_ID":"2002-024C","EPOCH":"2026-04-27T17:55:01.760160","MEAN_MOTION":14.14555984,"ECCENTRICITY":0.0049195,"INCLINATION":98.8742,"RA_OF_ASC_NODE":170.8826,"ARG_OF_PERICENTER":243.0505,"MEAN_ANOMALY":226.1521,"EPHEMERIS_TYPE":0,"CLASSIFICATION_TYPE":"U","NORAD_CAT_ID":27432,"ELEMENT_SET_NO":999,"REV_AT_EPOCH":23617,"BSTAR":3.9674e-5,"MEAN_MOTION_DOT":3.2e-7,"MEAN_MOTION_DDOT":0},{"OBJECT_NAME":"MIDORI II (ADEOS-II)","OBJECT_ID":"2002-056A","EPOCH":"2026-04-27T21:02:00.705120","MEAN_MOTION":14.29319932,"ECCENTRICITY":9.05e-5,"INCLINATION":98.7843,"RA_OF_ASC_NODE":76.7205,"ARG_OF_PERICENTER":142.3916,"MEAN_ANOMALY":217.7329,"EPHEMERIS_TYPE":0,"CLASSIFICATION_TYPE":"U","NORAD_CAT_ID":27597,"ELEMENT_SET_NO":999,"REV_AT_EPOCH":21732,"BSTAR":0.0001364,"MEAN_MOTION_DOT":3.02e-6,"MEAN_MOTION_DDOT":0},{"OBJECT_NAME":"H-2A R/B","OBJECT_ID":"2002-056E","EPOCH":"2026-04-27T20:04:00.984000","MEAN_MOTION":14.33794871,"ECCENTRICITY":0.0070625,"INCLINATION":98.3278,"RA_OF_ASC_NODE":76.3568,"ARG_OF_PERICENTER":16.2292,"MEAN_ANOMALY":41.7483,"EPHEMERIS_TYPE":0,"CLASSIFICATION_TYPE":"U","NORAD_CAT_ID":27601,"ELEMENT_SET_NO":999,"REV_AT_EPOCH":22115,"BSTAR":0.00014152,"MEAN_MOTION_DOT":3.63e-6,"MEAN_MOTION_DDOT":0},{"OBJECT_NAME":"CZ-4B R/B","OBJECT_ID":"2003-049C","EPOCH":"2026-04-27T13:14:37.705920","MEAN_MOTION":14.55061464,"ECCENTRICITY":0.0049341,"INCLINATION":98.6899,"RA_OF_ASC_NODE":114.3868,"ARG_OF_PERICENTER":82.7979,"MEAN_ANOMALY":277.8822,"EPHEMERIS_TYPE":0,"CLASSIFICATION_TYPE":"U","NORAD_CAT_ID":28059,"ELEMENT_SET_NO":999,"REV_AT_EPOCH":19370,"BSTAR":0.00010671,"MEAN_MOTION_DOT":4.16e-6,"MEAN_MOTION_DDOT":0},{"OBJECT_NAME":"CZ-2C R/B","OBJECT_ID":"2004-012C","EPOCH":"2026-04-27T18:17:22.000416","MEAN_MOTION":15.70658434,"ECCENTRICITY":0.0013485,"INCLINATION":97.7133,"RA_OF_ASC_NODE":187.9125,"ARG_OF_PERICENTER":129.5605,"MEAN_ANOMALY":230.685,"EPHEMERIS_TYPE":0,"CLASSIFICATION_TYPE":"U","NORAD_CAT_ID":28222,"ELEMENT_SET_NO":999,"REV_AT_EPOCH":21196,"BSTAR":0.0006015,"MEAN_MOTION_DOT":0.00074953,"MEAN_MOTION_DDOT":0},{"OBJECT_NAME":"SL-16 R/B","OBJECT_ID":"2004-021B","EPOCH":"2026-04-27T14:27:06.634368","MEAN_MOTION":14.14603801,"ECCENTRICITY":0.0006895,"INCLINATION":70.9982,"RA_OF_ASC_NODE":129.8488,"ARG_OF_PERICENTER":307.5201,"MEAN_ANOMALY":52.5294,"EPHEMERIS_TYPE":0,"CLASSIFICATION_TYPE":"U","NORAD_CAT_ID":28353,"ELEMENT_SET_NO":999,"REV_AT_EPOCH":12975,"BSTAR":-8.2894e-5,"MEAN_MOTION_DOT":-2.07e-6,"MEAN_MOTION_DDOT":0},{"OBJECT_NAME":"CZ-4B R/B","OBJECT_ID":"2004-035C","EPOCH":"2026-04-27T20:18:28.884096","MEAN_MOTION":15.29849599,"ECCENTRICITY":0.0032522,"INCLINATION":97.3422,"RA_OF_ASC_NODE":151.5057,"ARG_OF_PERICENTER":151.4102,"MEAN_ANOMALY":208.893,"EPHEMERIS_TYPE":0,"CLASSIFICATION_TYPE":"U","NORAD_CAT_ID":28415,"ELEMENT_SET_NO":999,"REV_AT_EPOCH":18742,"BSTAR":0.0003037,"MEAN_MOTION_DOT":8.845e-5,"MEAN_MOTION_DDOT":0},{"OBJECT_NAME":"CZ-2C R/B","OBJECT_ID":"2004-046B","EPOCH":"2026-04-27T18:40:19.830720","MEAN_MOTION":14.27011243,"ECCENTRICITY":0.0139699,"INCLINATION":98.1969,"RA_OF_ASC_NODE":29.7019,"ARG_OF_PERICENTER":10.2378,"MEAN_ANOMALY":350.1598,"EPHEMERIS_TYPE":0,"CLASSIFICATION_TYPE":"U","NORAD_CAT_ID":28480,"ELEMENT_SET_NO":999,"REV_AT_EPOCH":11550,"BSTAR":8.0545e-5,"MEAN_MOTION_DOT":1.76e-6,"MEAN_MOTION_DDOT":0},{"OBJECT_NAME":"ARIANE 5 R/B","OBJECT_ID":"2004-049H","EPOCH":"2026-04-27T17:49:54.484608","MEAN_MOTION":14.85358327,"ECCENTRICITY":0.00838,"INCLINATION":98.269,"RA_OF_ASC_NODE":288.0591,"ARG_OF_PERICENTER":191.2491,"MEAN_ANOMALY":168.6852,"EPHEMERIS_TYPE":0,"CLASSIFICATION_TYPE":"U","NORAD_CAT_ID":28499,"ELEMENT_SET_NO":999,"REV_AT_EPOCH":15307,"BSTAR":0.00012535,"MEAN_MOTION_DOT":1.083e-5,"MEAN_MOTION_DDOT":0},{"OBJECT_NAME":"CZ-2D R/B","OBJECT_ID":"2005-024B","EPOCH":"2026-04-27T13:49:54.698592","MEAN_MOTION":15.64541165,"ECCENTRICITY":0.0005013,"INCLINATION":97.3538,"RA_OF_ASC_NODE":134.6723,"ARG_OF_PERICENTER":165.6249,"MEAN_ANOMALY":194.5154,"EPHEMERIS_TYPE":0,"CLASSIFICATION_TYPE":"U","NORAD_CAT_ID":28738,"ELEMENT_SET_NO":999,"REV_AT_EPOCH":14741,"BSTAR":0.00049788,"MEAN_MOTION_DOT":0.00048044,"MEAN_MOTION_DDOT":0}]
